[{"OBJECT_NAME":"OBJECT M","OBJECT_ID":"2024-205M","EPOCH":"2026-03-09T22:23:47.520096","MEAN_MOTION":15.27663844,"ECCENTRICITY":0.00036602,"INCLINATION":97.3915,"RA_OF_ASC_NODE":144.193,"ARG_OF_PERICENTER":310.2554,"MEAN_ANOMALY":49.8364,"EPHEMERIS_TYPE":0,"CLASSIFICATION_TYPE":"U","NORAD_CAT_ID":61905,"ELEMENT_SET_NO":999,"REV_AT_EPOCH":7334,"BSTAR":0.00036391974,"MEAN_MOTION_DOT":9.771e-5,"MEAN_MOTION_DDOT":0},{"OBJECT_NAME":"STARLINK-36134","OBJECT_ID":"2025-281R","EPOCH":"2026-03-09T04:29:35.333664","MEAN_MOTION":15.27585695,"ECCENTRICITY":0.00017411,"INCLINATION":43.0016,"RA_OF_ASC_NODE":345.8784,"ARG_OF_PERICENTER":263.0169,"MEAN_ANOMALY":97.0485,"EPHEMERIS_TYPE":0,"CLASSIFICATION_TYPE":"U","NORAD_CAT_ID":66863,"ELEMENT_SET_NO":999,"REV_AT_EPOCH":1611,"BSTAR":0.00097534562,"MEAN_MOTION_DOT":0.00026679,"MEAN_MOTION_DDOT":0}]
